{
  "type": "FeatureCollection",
  "features": [
    {
      "type": "Feature",
      "properties": {
        "norad_id": 30947,
        "name": "FENGYUN 1C DEB",
        "group": "fengyun-1c-debris",
        "lat": -46.68467359299396,
        "lon": -107.35475378081681,
        "alt_km": 764.7657510098315,
        "timestamp": "2025-12-19T08:58:49.618070+00:00",
        "meta_object_name": "FENGYUN 1C DEB",
        "meta_object_id": "1999-025BAM",
        "meta_epoch": "2025-12-17T22:08:02.807808",
        "meta_mean_motion": 14.38050747,
        "meta_eccentricity": 0.00957725,
        "meta_inclination": 98.8089,
        "meta_ra_of_asc_node": 241.6907,
        "meta_arg_of_pericenter": 232.2262,
        "meta_mean_anomaly": 127.0221,
        "meta_ephemeris_type": 0,
        "meta_classification_type": "U",
        "meta_norad_cat_id": 30947,
        "meta_element_set_no": 999,
        "meta_rev_at_epoch": 98567,
        "meta_bstar": 0.00022660227,
        "meta_mean_motion_dot": 6.74e-06,
        "meta_mean_motion_ddot": 0,
        "tle_line1": "1 30947U 99025BAM 25351.92225472  .00000674  00000+0  22660-3 0  9992",
        "tle_line2": "2 30947  98.8089 241.6907 0095772 232.2262 127.0221 14.38050747985674"
      },
      "geometry": {
        "type": "Point",
        "coordinates": [
          -107.35475378081681,
          -46.68467359299396
        ]
      }
    },
    {
      "type": "Feature",
      "properties": {
        "norad_id": 30949,
        "name": "FENGYUN 1C DEB",
        "group": "fengyun-1c-debris",
        "lat": 27.77888087827629,
        "lon": -17.076306413057768,
        "alt_km": 854.2315660900495,
        "timestamp": "2025-12-19T08:58:49.618087+00:00",
        "meta_object_name": "FENGYUN 1C DEB",
        "meta_object_id": "1999-025BAP",
        "meta_epoch": "2025-12-18T22:47:47.016672",
        "meta_mean_motion": 14.14054921,
        "meta_eccentricity": 0.0116172,
        "meta_inclination": 98.6977,
        "meta_ra_of_asc_node": 347.1358,
        "meta_arg_of_pericenter": 291.9751,
        "meta_mean_anomaly": 96.0217,
        "meta_ephemeris_type": 0,
        "meta_classification_type": "U",
        "meta_norad_cat_id": 30949,
        "meta_element_set_no": 999,
        "meta_rev_at_epoch": 96604,
        "meta_bstar": 0.00020703109,
        "meta_mean_motion_dot": 3.76e-06,
        "meta_mean_motion_ddot": 0,
        "tle_line1": "1 30949U 99025BAP 25352.94984973  .00000376  00000+0  20703-3 0  9990",
        "tle_line2": "2 30949  98.6977 347.1358 0116172 291.9751  96.0217 14.14054921966047"
      },
      "geometry": {
        "type": "Point",
        "coordinates": [
          -17.076306413057768,
          27.77888087827629
        ]
      }
    },
    {
      "type": "Feature",
      "properties": {
        "norad_id": 30954,
        "name": "FENGYUN 1C DEB",
        "group": "fengyun-1c-debris",
        "lat": 81.28114598271024,
        "lon": 3.2376943088130754,
        "alt_km": 815.2621481509714,
        "timestamp": "2025-12-19T08:58:49.618107+00:00",
        "meta_object_name": "FENGYUN 1C DEB",
        "meta_object_id": "1999-025BAU",
        "meta_epoch": "2025-12-18T05:42:44.125344",
        "meta_mean_motion": 14.14957221,
        "meta_eccentricity": 0.01288718,
        "meta_inclination": 98.7134,
        "meta_ra_of_asc_node": 92.2248,
        "meta_arg_of_pericenter": 171.7499,
        "meta_mean_anomaly": 255.447,
        "meta_ephemeris_type": 0,
        "meta_classification_type": "U",
        "meta_norad_cat_id": 30954,
        "meta_element_set_no": 999,
        "meta_rev_at_epoch": 96465,
        "meta_bstar": 0.00095397034,
        "meta_mean_motion_dot": 1.957e-05,
        "meta_mean_motion_ddot": 0,
        "tle_line1": "1 30954U 99025BAU 25352.23801071  .00001957  00000+0  95397-3 0  9992",
        "tle_line2": "2 30954  98.7134  92.2248 0128871 171.7499 255.4470 14.14957221964650"
      },
      "geometry": {
        "type": "Point",
        "coordinates": [
          3.2376943088130754,
          81.28114598271024
        ]
      }
    },
    {
      "type": "Feature",
      "properties": {
        "norad_id": 30956,
        "name": "FENGYUN 1C DEB",
        "group": "fengyun-1c-debris",
        "lat": 69.36048788358865,
        "lon": 3.096057602009519,
        "alt_km": 848.6812522369673,
        "timestamp": "2025-12-19T08:58:49.618120+00:00",
        "meta_object_name": "FENGYUN 1C DEB",
        "meta_object_id": "1999-025BAW",
        "meta_epoch": "2025-12-17T13:14:34.844352",
        "meta_mean_motion": 14.14225224,
        "meta_eccentricity": 0.00491187,
        "meta_inclination": 98.7598,
        "meta_ra_of_asc_node": 25.4736,
        "meta_arg_of_pericenter": 328.9596,
        "meta_mean_anomaly": 188.7624,
        "meta_ephemeris_type": 0,
        "meta_classification_type": "U",
        "meta_norad_cat_id": 30956,
        "meta_element_set_no": 999,
        "meta_rev_at_epoch": 96375,
        "meta_bstar": 0.00083080749,
        "meta_mean_motion_dot": 1.56e-05,
        "meta_mean_motion_ddot": 0,
        "tle_line1": "1 30956U 99025BAW 25351.55179218  .00001560  00000+0  83081-3 0  9996",
        "tle_line2": "2 30956  98.7598  25.4736 0049118 328.9596 188.7624 14.14225224963756"
      },
      "geometry": {
        "type": "Point",
        "coordinates": [
          3.096057602009519,
          69.36048788358865
        ]
      }
    },
    {
      "type": "Feature",
      "properties": {
        "norad_id": 30960,
        "name": "FENGYUN 1C DEB",
        "group": "fengyun-1c-debris",
        "lat": 71.35526647173641,
        "lon": 81.98385865683255,
        "alt_km": 609.1839306540205,
        "timestamp": "2025-12-19T08:58:49.618130+00:00",
        "meta_object_name": "FENGYUN 1C DEB",
        "meta_object_id": "1999-025BBA",
        "meta_epoch": "2025-12-18T03:10:39.664992",
        "meta_mean_motion": 14.66992956,
        "meta_eccentricity": 0.01961531,
        "meta_inclination": 99.0009,
        "meta_ra_of_asc_node": 108.6406,
        "meta_arg_of_pericenter": 145.2813,
        "meta_mean_anomaly": 216.1374,
        "meta_ephemeris_type": 0,
        "meta_classification_type": "U",
        "meta_norad_cat_id": 30960,
        "meta_element_set_no": 999,
        "meta_rev_at_epoch": 98777,
        "meta_bstar": 0.0011958402,
        "meta_mean_motion_dot": 8.891e-05,
        "meta_mean_motion_ddot": 0,
        "tle_line1": "1 30960U 99025BBA 25352.13240353  .00008891  00000+0  11958-2 0  9992",
        "tle_line2": "2 30960  99.0009 108.6406 0196153 145.2813 216.1374 14.66992956987770"
      },
      "geometry": {
        "type": "Point",
        "coordinates": [
          81.98385865683255,
          71.35526647173641
        ]
      }
    },
    {
      "type": "Feature",
      "properties": {
        "norad_id": 30967,
        "name": "FENGYUN 1C DEB",
        "group": "fengyun-1c-debris",
        "lat": 67.58738886518645,
        "lon": -82.0287786871473,
        "alt_km": 753.4603796985866,
        "timestamp": "2025-12-19T08:58:49.618140+00:00",
        "meta_object_name": "FENGYUN 1C DEB",
        "meta_object_id": "1999-025BBH",
        "meta_epoch": "2025-12-17T08:51:58.316544",
        "meta_mean_motion": 14.57173124,
        "meta_eccentricity": 0.00946449,
        "meta_inclination": 98.7642,
        "meta_ra_of_asc_node": 297.8284,
        "meta_arg_of_pericenter": 225.2916,
        "meta_mean_anomaly": 134.0546,
        "meta_ephemeris_type": 0,
        "meta_classification_type": "U",
        "meta_norad_cat_id": 30967,
        "meta_element_set_no": 999,
        "meta_rev_at_epoch": 99081,
        "meta_bstar": 0.00055251457,
        "meta_mean_motion_dot": 2.594e-05,
        "meta_mean_motion_ddot": 0,
        "tle_line1": "1 30967U 99025BBH 25351.36942496  .00002594  00000+0  55251-3 0  9999",
        "tle_line2": "2 30967  98.7642 297.8284 0094644 225.2916 134.0546 14.57173124990812"
      },
      "geometry": {
        "type": "Point",
        "coordinates": [
          -82.0287786871473,
          67.58738886518645
        ]
      }
    },
    {
      "type": "Feature",
      "properties": {
        "norad_id": 30971,
        "name": "FENGYUN 1C DEB",
        "group": "fengyun-1c-debris",
        "lat": -78.95021870967749,
        "lon": 161.91257207937673,
        "alt_km": 667.19473474611,
        "timestamp": "2025-12-19T08:58:49.618151+00:00",
        "meta_object_name": "FENGYUN 1C DEB",
        "meta_object_id": "1999-025BBM",
        "meta_epoch": "2025-12-17T08:46:03.055296",
        "meta_mean_motion": 14.71744333,
        "meta_eccentricity": 0.01639021,
        "meta_inclination": 99.2095,
        "meta_ra_of_asc_node": 35.8227,
        "meta_arg_of_pericenter": 176.9152,
        "meta_mean_anomaly": 247.6493,
        "meta_ephemeris_type": 0,
        "meta_classification_type": "U",
        "meta_norad_cat_id": 30971,
        "meta_element_set_no": 999,
        "meta_rev_at_epoch": 99785,
        "meta_bstar": 0.00047613959,
        "meta_mean_motion_dot": 3.596e-05,
        "meta_mean_motion_ddot": 0,
        "tle_line1": "1 30971U 99025BBM 25351.36531314  .00003596  00000+0  47614-3 0  9994",
        "tle_line2": "2 30971  99.2095  35.8227 0163902 176.9152 247.6493 14.71744333997855"
      },
      "geometry": {
        "type": "Point",
        "coordinates": [
          161.91257207937673,
          -78.95021870967749
        ]
      }
    }
  ]
}